GLOBALSTAR M063         
1 26081U 00008A   25251.43520903 -.00000074  00000+0  12723-3 0  9995
2 26081  51.9929 252.3276 0004588 115.5436  36.0830 11.86175888167457
GLOBALSTAR M062         
1 26082U 00008B   25251.33855213 -.00000093  00000+0  37115-4 0  9994
2 26082  51.9830 211.2580 0007048 292.0830 223.0760 12.43471702506965
GLOBALSTAR M060         
1 26083U 00008C   25251.57015909 -.00000020  00000+0  70231-3 0  9996
2 26083  52.0007 182.3810 0003300 303.1257 227.8733 12.17665922162524
GLOBALSTAR M064         
1 26084U 00008D   25251.57016665 -.00000062  00000+0  29859-3 0  9993
2 26084  52.0065 349.8169 0001456 194.4456 165.6335 11.88535714177017
GLOBALSTAR M065         
1 31571U 07020A   25251.55389679 -.00000089  00000+0  79833-4 0  9994
2 31571  51.9917 332.5262 0010610 131.9908 333.2142 12.62010410843935
GLOBALSTAR M069         
1 31573U 07020C   25251.51043544 -.00000067  00000+0  23366-3 0  9995
2 31573  52.0058 329.3783 0001133 286.1878 179.5943 12.23461670844325
GLOBALSTAR M072         
1 31574U 07020D   25251.41079767 -.00000053  00000+0  42395-3 0  9999
2 31574  51.9917 130.4093 0001556  99.6392  71.1075 11.91651493841384
GLOBALSTAR M071         
1 31576U 07020F   25251.55892912 -.00000143  00000+0 -51159-3 0  9990
2 31576  52.0092 357.2088 0000262 232.8667 140.7135 12.18257767505107
